[{"OBJECT_NAME":"GEESAT-2 04","OBJECT_ID":"2024-023D","EPOCH":"2026-03-09T22:58:49.443744","MEAN_MOTION":14.96681304,"ECCENTRICITY":0.00064656,"INCLINATION":49.992,"RA_OF_ASC_NODE":72.838,"ARG_OF_PERICENTER":6.7244,"MEAN_ANOMALY":353.3785,"EPHEMERIS_TYPE":0,"CLASSIFICATION_TYPE":"U","NORAD_CAT_ID":58908,"ELEMENT_SET_NO":999,"REV_AT_EPOCH":11446,"BSTAR":0.0002767609,"MEAN_MOTION_DOT":2.943e-5,"MEAN_MOTION_DDOT":0},{"OBJECT_NAME":"STARLINK-34563","OBJECT_ID":"2025-142N","EPOCH":"2026-03-09T22:38:55.151232","MEAN_MOTION":14.98330472,"ECCENTRICITY":0.00027736,"INCLINATION":70.0014,"RA_OF_ASC_NODE":314.0213,"ARG_OF_PERICENTER":268.4296,"MEAN_ANOMALY":91.6545,"EPHEMERIS_TYPE":0,"CLASSIFICATION_TYPE":"U","NORAD_CAT_ID":64708,"ELEMENT_SET_NO":999,"REV_AT_EPOCH":3949,"BSTAR":0.00035972076,"MEAN_MOTION_DOT":4.202e-5,"MEAN_MOTION_DDOT":0}]
